KPTD 221755Z AUTO 09007KT 2SM +RA BKN004 BKN010 OVC043 20/19 A2993 RMK AO2 P0080
KPTD 221735Z AUTO 06004KT 1/4SM +RA OVC004 19/18 A2992 RMK AO2
KPTD 221715Z AUTO 28010KT 10SM SCT022 BKN038 OVC046 21/19 A2992 RMK AO2
KPTD 221655Z AUTO 34006KT 4SM -RA BKN021 BKN028 OVC048 22/20 A2992 RMK AO2
KPTD 221635Z AUTO 30007KT 10SM SCT023 OVC029 23/20 A2991 RMK AO2
KPTD 221615Z AUTO 32006KT 10SM SCT021 OVC028 24/20 A2991 RMK AO2
KPTD 221555Z AUTO VRB04KT 10SM FEW021 BKN030 OVC041 25/21 A2992 RMK AO2
KPTD 221535Z AUTO 00000KT 10SM SCT025 BKN030 OVC041 26/21 A2992 RMK AO2
KPTD 221515Z AUTO 00000KT 10SM BKN024 BKN031 BKN120 26/19 A2993 RMK AO2
KPTD 221455Z AUTO 32003KT 10SM FEW024 SCT034 SCT120 25/19 A2993 RMK AO2
KPTD 221435Z AUTO 19005KT 10SM BKN033 BKN043 BKN049 25/20 A2994 RMK AO2
KPTD 221415Z AUTO 00000KT 10SM BKN032 BKN043 OVC085 24/20 A2994 RMK AO2
KPTD 221355Z AUTO 00000KT 10SM BKN031 BKN085 24/20 A2994 RMK AO2
KPTD 221335Z AUTO 00000KT 10SM BKN032 BKN120 24/20 A2995 RMK AO2
KPTD 221315Z AUTO 00000KT 10SM SCT032 BKN120 23/20 A2994 RMK AO2
KPTD 221255Z AUTO 00000KT 10SM BKN032 OVC100 22/20 A2995 RMK AO2
KPTD 221235Z AUTO 00000KT 10SM FEW033 BKN100 BKN120 22/20 A2995 RMK AO2
KPTD 221215Z AUTO 00000KT 10SM SCT100 21/19 A2995 RMK AO2
KPTD 221150Z AUTO 00000KT 10SM SCT032 BKN044 20/19 A2996 RMK AO2
KPTD 221135Z AUTO 00000KT 10SM BKN032 OVC043 20/19 A2996 RMK AO2
KPTD 221115Z AUTO 00000KT 10SM OVC032 20/19 A2995 RMK AO2
KPTD 221055Z AUTO 00000KT 10SM OVC034 19/19 A2995 RMK AO2
KPTD 221035Z AUTO 00000KT 8SM OVC035 19/18 A2995 RMK AO2
KPTD 221015Z AUTO 00000KT 10SM OVC034 19/18 A2995 RMK AO2
KPTD 220955Z AUTO 00000KT 9SM OVC034 19/18 A2995 RMK AO2
KPTD 220935Z AUTO 00000KT 10SM BKN034 BKN041 OVC120 19/18 A2995 RMK AO2
KPTD 220915Z AUTO 00000KT 10SM BKN034 BKN041 OVC100 19/18 A2994 RMK AO2
KPTD 220855Z AUTO 00000KT 10SM BKN035 OVC100 18/18 A2994 RMK AO2
KPTD 220835Z AUTO 00000KT 10SM BKN033 BKN038 OVC110 19/18 A2995 RMK AO2
KPTD 220815Z AUTO 00000KT 10SM FEW033 SCT060 BKN110 19/18 A2995 RMK AO2
KPTD 220755Z AUTO 00000KT 10SM FEW050 FEW060 FEW120 19/18 A2996 RMK AO2
KPTD 220735Z AUTO 00000KT 10SM FEW055 SCT080 SCT110 19/18 A2996 RMK AO2
KPTD 220715Z AUTO 00000KT 10SM BKN075 OVC110 19/18 A2996 RMK AO2
KPTD 220655Z AUTO 18003KT 10SM SCT075 OVC110 19/19 A2996 RMK AO2
KPTD 220635Z AUTO 00000KT 10SM FEW060 OVC110 19/19 A2996 RMK AO2
KPTD 220615Z AUTO 00000KT 10SM FEW047 BKN060 OVC100 19/19 A2997 RMK AO2
KPTD 220555Z AUTO 00000KT 10SM SCT045 BKN075 OVC095 19/19 A2997 RMK AO2
KPTD 220535Z AUTO 00000KT 10SM FEW046 OVC070 19/19 A2997 RMK AO2
KPTD 220515Z AUTO 00000KT 10SM FEW027 SCT046 BKN065 20/19 A2997 RMK AO2
KPTD 220455Z AUTO 16004KT 10SM SCT030 BKN044 OVC075 19/19 A2998 RMK AO2
KPTD 220435Z AUTO 00000KT 10SM FEW055 BKN075 OVC110 19/19 A2998 RMK AO2
KPTD 220415Z AUTO 00000KT 10SM FEW055 FEW075 OVC110 19/19 A2998 RMK AO2
KPTD 220355Z AUTO 00000KT 10SM FEW031 SCT048 BKN075 19/19 A2998 RMK AO2 P0001
KPTD 220335Z AUTO 00000KT 9SM FEW030 SCT045 BKN075 19/19 A2999 RMK AO2
KPTD 220315Z AUTO 00000KT 7SM -DZ SCT050 BKN070 OVC120 19/19 A2999 RMK AO2
KPTD 220255Z AUTO 00000KT 7SM -DZ SCT036 BKN048 OVC075 20/19 A2999 RMK AO2 P0002
KPTD 220235Z AUTO 00000KT 9SM -RA SCT035 SCT046 OVC075 20/19 A3000 RMK AO2
KPTD 220215Z AUTO 00000KT 10SM FEW035 SCT043 OVC075 20/19 A3000 RMK AO2
KPTD 220155Z AUTO 17005KT 10SM FEW034 BKN044 OVC075 20/19 A2999 RMK AO2
KPTD 220135Z AUTO 17006KT 10SM FEW048 SCT055 BKN070 20/19 A2999 RMK AO2
KPTD 220115Z AUTO 00000KT 10SM FEW020 SCT043 BKN060 20/19 A2999 RMK AO2
KPTD 220055Z AUTO 21004KT 7SM RA SCT004 BKN025 OVC055 20/19 A2999 RMK AO2 P0019
KPTD 220035Z AUTO 25011G33KT 1 1/4SM RA SCT004 BKN023 OVC032 21/19 A2999 RMK AO2
KPTD 220015Z AUTO 00000KT 10SM BKN032 BKN038 BKN050 22/20 A2997 RMK AO2
KPTD 212355Z AUTO 21003KT 10SM FEW037 FEW050 23/20 A2996 RMK AO2
KPTD 212335Z AUTO 21004KT 10SM FEW037 23/20 A2997 RMK AO2
KPTD 212315Z AUTO 21005KT 10SM BKN039 24/20 A2996 RMK AO2
KPTD 212255Z AUTO 22005KT 10SM FEW042 24/20 A2996 RMK AO2
KPTD 212235Z AUTO 21006KT 10SM CLR 25/19 A2996 RMK AO2
KPTD 212215Z AUTO 22007G16KT 10SM CLR 25/19 A2997 RMK AO2
KPTD 212155Z AUTO 20007G14KT 10SM CLR 26/19 A2996 RMK AO2
KPTD 212135Z AUTO 19009KT 150V220 10SM CLR 26/19 A2996 RMK AO2
KPTD 212115Z AUTO 19007KT 10SM CLR 24/18 A2997 RMK AO2
KPTD 212055Z AUTO 19005G16KT 10SM FEW060 25/19 A2998 RMK AO2
KPTD 212035Z AUTO 19009G18KT 10SM FEW060 24/18 A2998 RMK AO2
KPTD 212015Z AUTO 18016G24KT 10SM FEW085 24/18 A2998 RMK AO2
KPTD 211955Z AUTO 19011G21KT 10SM BKN080 BKN090 23/19 A3000 RMK AO2 P0001
KPTD 211935Z AUTO 18009G18KT 10SM SCT080 SCT095 22/19 A3001 RMK AO2
KPTD 211915Z AUTO 19009KT 10SM FEW080 FEW085 SCT110 22/20 A3002 RMK AO2
KPTD 211855Z AUTO 18004KT 9SM CLR 21/20 A3003 RMK AO2 P0004
KPTD 211835Z AUTO 19004KT 8SM -RA FEW042 FEW050 FEW055 21/20 A3003 RMK AO2
KPTD 211815Z AUTO 17005KT 6SM -RA SCT042 BKN050 BKN070 21/19 A3004 RMK AO2
KPTD 211755Z AUTO 18007G15KT 8SM FEW042 FEW050 FEW110 22/19 A3005 RMK AO2 P0001
KPTD 211735Z AUTO 19008KT 7SM -RA CLR 23/20 A3005 RMK AO2
KPTD 211715Z AUTO 23011KT 10SM CLR 24/20 A3005 RMK AO2
KPTD 211655Z AUTO 24008KT 9SM CLR 25/20 A3004 RMK AO2
KPTD 211635Z AUTO 23010G17KT 10SM CLR 25/19 A3004 RMK AO2
KPTD 211615Z AUTO 24009G17KT 10SM FEW050 FEW060 26/19 A3004 RMK AO2
KPTD 211555Z AUTO 22007KT 10SM CLR 27/19 A3003 RMK AO2
KPTD 211535Z AUTO 22008KT 10SM FEW046 FEW055 27/19 A3004 RMK AO2
KPTD 211515Z AUTO 21008KT 10SM SCT045 SCT055 28/19 A3004 RMK AO2
KPTD 211455Z AUTO 21009KT 10SM CLR 29/20 A3004 RMK AO2
KPTD 211435Z AUTO 16005G10KT 10SM CLR 28/19 A3004 RMK AO2
KPTD 211415Z AUTO 18008KT 10SM CLR 27/19 A3004 RMK AO2
KPTD 211355Z AUTO 17007KT 10SM CLR 27/19 A3004 RMK AO2
KPTD 211335Z AUTO 16005KT 10SM FEW120 26/19 A3004 RMK AO2
KPTD 211315Z AUTO 18005KT 10SM FEW120 25/19 A3005 RMK AO2
KPTD 211255Z AUTO 18004KT 10SM FEW120 24/18 A3005 RMK AO2
KPTD 211235Z AUTO 17005KT 10SM SCT120 23/18 A3005 RMK AO2
KPTD 211215Z AUTO 18005KT 10SM FEW120 23/18 A3006 RMK AO2
KPTD 211155Z AUTO 19005KT 10SM CLR 22/17 A3006 RMK AO2
KPTD 211135Z AUTO 19004KT 10SM FEW120 22/17 A3006 RMK AO2
KPTD 211115Z AUTO 17004KT 10SM SCT120 22/17 A3006 RMK AO2
KPTD 211055Z AUTO 18003KT 10SM CLR 21/17 A3005 RMK AO2
KPTD 211035Z AUTO 18004KT 10SM CLR 21/16 A3005 RMK AO2
KPTD 211015Z AUTO 00000KT 10SM CLR 21/16 A3005 RMK AO2
KPTD 210955Z AUTO 19004KT 10SM CLR 21/16 A3005 RMK AO2
KPTD 210935Z AUTO 17004KT 10SM FEW050 FEW060 21/16 A3005 RMK AO2
KPTD 210915Z AUTO 17005KT 10SM FEW055 SCT120 21/16 A3004 RMK AO2
KPTD 210855Z AUTO 18005KT 10SM FEW043 SCT055 BKN070 21/17 A3004 RMK AO2
KPTD 210835Z AUTO 20004KT 10SM FEW027 FEW050 BKN070 21/16 A3005 RMK AO2
KPTD 210815Z AUTO 22004KT 10SM FEW050 FEW070 SCT120 20/16 A3005 RMK AO2
KPTD 210755Z AUTO 20003KT 10SM FEW045 FEW055 FEW085 21/16 A3005 RMK AO2
KPTD 210735Z AUTO 20004KT 10SM FEW042 FEW050 SCT055 20/16 A3005 RMK AO2
KPTD 210715Z AUTO 20004KT 10SM FEW042 FEW048 SCT055 21/16 A3005 RMK AO2
KPTD 210655Z AUTO 21004KT 10SM FEW048 FEW055 SCT070 21/16 A3005 RMK AO2
KPTD 210635Z AUTO 00000KT 10SM FEW048 SCT055 SCT065 20/16 A3005 RMK AO2
KPTD 210615Z AUTO 16004KT 10SM FEW042 FEW050 SCT060 20/16 A3005 RMK AO2
KPTD 210555Z AUTO 00000KT 10SM FEW055 FEW065 FEW075 19/17 A3005 RMK AO2
KPTD 210535Z AUTO 00000KT 10SM FEW055 FEW065 SCT070 19/17 A3006 RMK AO2
KPTD 210515Z AUTO 00000KT 10SM FEW055 SCT080 18/17 A3006 RMK AO2
KPTD 210455Z AUTO 00000KT 10SM CLR 20/17 A3006 RMK AO2
KPTD 210435Z AUTO 00000KT 10SM FEW055 20/17 A3007 RMK AO2
KPTD 210415Z AUTO 00000KT 10SM SCT060 19/17 A3007 RMK AO2
KPTD 210355Z AUTO 00000KT 10SM FEW050 BKN065 20/17 A3007 RMK AO2
KPTD 210335Z AUTO 00000KT 10SM FEW046 FEW055 OVC070 20/17 A3008 RMK AO2
KPTD 210315Z AUTO 17003KT 10SM FEW045 SCT055 OVC070 20/17 A3008 RMK AO2
KPTD 210255Z AUTO 16003KT 10SM FEW048 FEW065 BKN075 19/18 A3008 RMK AO2
KPTD 210235Z AUTO 00000KT 10SM FEW037 SCT055 BKN110 20/18 A3007 RMK AO2
KPTD 210215Z AUTO 00000KT 10SM FEW035 FEW042 SCT055 20/18 A3007 RMK AO2
KPTD 210155Z AUTO 15003KT 10SM FEW047 SCT060 SCT070 20/18 A3006 RMK AO2
KPTD 210135Z AUTO 00000KT 10SM FEW047 FEW060 SCT120 20/19 A3007 RMK AO2
KPTD 210115Z AUTO 00000KT 10SM FEW050 FEW055 FEW120 21/18 A3007 RMK AO2
KPTD 210055Z AUTO 00000KT 10SM FEW055 SCT120 22/19 A3007 RMK AO2
KPTD 210035Z AUTO 00000KT 10SM CLR 24/19 A3007 RMK AO2
KPTD 210015Z AUTO 00000KT 10SM CLR 24/19 A3007 RMK AO2
KPTD 202355Z AUTO 00000KT 10SM SCT120 25/19 A3007 RMK AO2
KPTD 202335Z AUTO 00000KT 10SM BKN120 26/19 A3007 RMK AO2
KPTD 202315Z AUTO 00000KT 10SM BKN110 26/19 A3006 RMK AO2
KPTD 202255Z AUTO 00000KT 10SM OVC110 26/19 A3006 RMK AO2
KPTD 202235Z AUTO 07004KT 10SM OVC110 27/18 A3007 RMK AO2
KPTD 202215Z AUTO 06004KT 10SM FEW080 BKN110 28/17 A3006 RMK AO2
KPTD 202155Z AUTO 00000KT 10SM BKN110 28/18 A3006 RMK AO2
KPTD 202135Z AUTO 05004KT 10SM SCT080 SCT120 29/17 A3006 RMK AO2
KPTD 202115Z AUTO 05004KT 10SM SCT080 SCT110 30/16 A3006 RMK AO2
KPTD 202055Z AUTO 03006KT 10SM SCT120 29/17 A3007 RMK AO2
KPTD 202035Z AUTO 06004KT 10SM FEW120 30/16 A3007 RMK AO2
KPTD 202015Z AUTO 07004KT 10SM CLR 31/15 A3008 RMK AO2
KPTD 201955Z AUTO 08003KT 10SM CLR 31/15 A3008 RMK AO2
KPTD 201935Z AUTO VRB04KT 10SM CLR 31/15 A3009 RMK AO2
KPTD 201915Z AUTO VRB03KT 10SM FEW110 30/15 A3009 RMK AO2
KPTD 201855Z AUTO 00000KT 10SM SCT065 BKN110 30/15 A3010 RMK AO2
KPTD 201835Z AUTO VRB04KT 10SM FEW065 30/15 A3011 RMK AO2
KPTD 201815Z AUTO 00000KT 10SM CLR 30/14 A3012 RMK AO2
KPTD 201755Z AUTO 00000KT 10SM CLR 30/14 A3012 RMK AO2
KPTD 201735Z AUTO 00000KT 10SM CLR 29/14 A3013 RMK AO2
KPTD 201715Z AUTO VRB04KT 10SM CLR 29/15 A3013 RMK AO2
KPTD 201655Z AUTO 00000KT 10SM CLR 29/15 A3014 RMK AO2
KPTD 201635Z AUTO 00000KT 10SM CLR 28/15 A3014 RMK AO2
KPTD 201615Z AUTO 00000KT 10SM CLR 29/14 A3014 RMK AO2
KPTD 201555Z AUTO 22005KT 10SM CLR 28/15 A3015 RMK AO2
KPTD 201535Z AUTO 00000KT 10SM CLR 28/14 A3015 RMK AO2
KPTD 201515Z AUTO 29004KT 10SM CLR 27/15 A3015 RMK AO2
KPTD 201455Z AUTO 00000KT 10SM CLR 27/15 A3015 RMK AO2
KPTD 201435Z AUTO 00000KT 10SM CLR 27/15 A3015 RMK AO2
KPTD 201415Z AUTO 00000KT 10SM CLR 26/15 A3015 RMK AO2
KPTD 201355Z AUTO 00000KT 10SM CLR 26/16 A3015 RMK AO2
KPTD 201335Z AUTO 18003KT 10SM CLR 25/16 A3015 RMK AO2
KPTD 201315Z AUTO 20004KT 10SM CLR 24/16 A3015 RMK AO2
KPTD 201255Z AUTO 00000KT 10SM CLR 23/15 A3015 RMK AO2
KPTD 201235Z AUTO 00000KT 10SM CLR 22/16 A3015 RMK AO2
KPTD 201215Z AUTO 17003KT 10SM CLR 21/15 A3015 RMK AO2
KPTD 201155Z AUTO 00000KT 10SM CLR 19/15 A3015 RMK AO2
KPTD 201135Z AUTO 00000KT 10SM CLR 17/14 A3015 RMK AO2
KPTD 201115Z AUTO 00000KT 10SM CLR 16/13 A3014 RMK AO2
KPTD 201055Z AUTO 00000KT 10SM CLR 16/13 A3014 RMK AO2
KPTD 201035Z AUTO 00000KT 10SM CLR 15/13 A3013 RMK AO2
KPTD 201015Z AUTO 00000KT 10SM CLR 15/13 A3013 RMK AO2
KPTD 200950Z AUTO 00000KT 10SM FEW033 FEW041 FEW050 14/13 A3012 RMK AO2
KPTD 200935Z AUTO 00000KT 10SM FEW032 SCT037 SCT042 15/13 A3012 RMK AO2
KPTD 200915Z AUTO 00000KT 10SM FEW027 BKN034 OVC055 16/13 A3012 RMK AO2
KPTD 200855Z AUTO 00000KT 10SM FEW027 BKN035 OVC049 15/13 A3011 RMK AO2
KPTD 200835Z AUTO 00000KT 10SM FEW032 BKN039 OVC049 15/13 A3011 RMK AO2
KPTD 200815Z AUTO 00000KT 10SM FEW026 BKN032 OVC065 15/13 A3011 RMK AO2
KPTD 200755Z AUTO 00000KT 10SM FEW031 BKN065 BKN090 15/13 A3011 RMK AO2
KPTD 200735Z AUTO 00000KT 10SM FEW026 SCT031 BKN045 14/13 A3011 RMK AO2
KPTD 200715Z AUTO 00000KT 10SM FEW035 FEW045 SCT050 15/14 A3011 RMK AO2
KPTD 200655Z AUTO 00000KT 10SM FEW050 15/14 A3011 RMK AO2
KPTD 200635Z AUTO 00000KT 10SM FEW055 15/14 A3010 RMK AO2
KPTD 200615Z AUTO 00000KT 10SM FEW041 BKN050 16/14 A3010 RMK AO2
KPTD 200555Z AUTO 00000KT 10SM FEW039 SCT055 17/14 A3010 RMK AO2
KPTD 200535Z AUTO 20004KT 10SM FEW050 FEW060 17/14 A3010 RMK AO2
KPTD 200515Z AUTO 00000KT 10SM CLR 16/14 A3010 RMK AO2
KPTD 200455Z AUTO 00000KT 10SM FEW060 17/14 A3010 RMK AO2
KPTD 200435Z AUTO 19004KT 10SM CLR 17/14 A3009 RMK AO2
KPTD 200415Z AUTO 17003KT 10SM FEW060 17/14 A3009 RMK AO2
KPTD 200355Z AUTO 00000KT 10SM FEW045 SCT055 SCT065 17/14 A3009 RMK AO2
KPTD 200335Z AUTO 17004KT 10SM FEW047 SCT055 SCT065 17/15 A3008 RMK AO2
KPTD 200315Z AUTO 18003KT 10SM FEW060 18/15 A3008 RMK AO2
KPTD 200255Z AUTO 00000KT 10SM FEW060 18/14 A3008 RMK AO2
KPTD 200235Z AUTO 19003KT 10SM FEW050 FEW060 19/15 A3007 RMK AO2
KPTD 200215Z AUTO 00000KT 10SM CLR 19/15 A3007 RMK AO2
KPTD 200155Z AUTO 18004KT 10SM FEW055 20/14 A3007 RMK AO2
KPTD 200135Z AUTO 19005KT 10SM FEW055 21/15 A3007 RMK AO2
KPTD 200115Z AUTO 19005KT 10SM CLR 21/15 A3006 RMK AO2
KPTD 200055Z AUTO 18004KT 10SM CLR 22/15 A3005 RMK AO2
KPTD 200035Z AUTO 18005KT 10SM CLR 22/15 A3005 RMK AO2
KPTD 200015Z AUTO 19004KT 10SM CLR 23/15 A3004 RMK AO2
KPTD 192355Z AUTO 21004KT 10SM CLR 23/16 A3004 RMK AO2
KPTD 192335Z AUTO 21004KT 10SM CLR 24/16 A3003 RMK AO2
KPTD 192315Z AUTO 21004KT 10SM CLR 25/16 A3002 RMK AO2
KPTD 192255Z AUTO 22006KT 10SM CLR 26/15 A3002 RMK AO2
KPTD 192235Z AUTO 24010KT 10SM CLR 27/14 A3002 RMK AO2
KPTD 192215Z AUTO 26008KT 10SM CLR 28/14 A3002 RMK AO2
KPTD 192155Z AUTO 27008KT 10SM CLR 28/14 A3001 RMK AO2
KPTD 192135Z AUTO 25007KT 10SM CLR 28/15 A3001 RMK AO2
KPTD 192115Z AUTO 28009KT 10SM CLR 28/13 A3001 RMK AO2
KPTD 192055Z AUTO 26007G13KT 10SM CLR 28/14 A3001 RMK AO2
KPTD 192035Z AUTO 26005G12KT 10SM CLR 28/14 A3001 RMK AO2
KPTD 192015Z AUTO 28006G12KT 10SM CLR 28/14 A3001 RMK AO2
KPTD 191955Z AUTO 24007G13KT 10SM CLR 28/15 A3001 RMK AO2
KPTD 191935Z AUTO 26009G16KT 10SM CLR 28/14 A3001 RMK AO2
KPTD 191915Z AUTO 23008G13KT 10SM CLR 28/12 A3001 RMK AO2
KPTD 191855Z AUTO 27009G15KT 10SM CLR 29/12 A3001 RMK AO2
KPTD 191835Z AUTO 24010G15KT 10SM CLR 29/13 A3002 RMK AO2
KPTD 191815Z AUTO 26009G14KT 10SM CLR 28/14 A3001 RMK AO2
KOXC 221759Z 05004KT 10SM BKN007 BKN013 OVC019 22/21 A2995 RMK AO2 CIG 005V011
KOXC 221751Z 01005KT 10SM SCT007 OVC013 22/21 A2996 RMK AO2 RAE29 SLP152 P0005 60021 T02220211 10222 20200 58005
KOXC 221718Z 04005KT 7SM -RA OVC013 21/21 A2996 RMK AO2 P0005
KOXC 221651Z 02003KT 4SM RA BR SCT008 OVC016 21/21 A2997 RMK AO2 RAB27 SLP158 P0016 T02110206
KOXC 221649Z 04003KT 5SM RA BR BKN008 OVC016 21/21 A2997 RMK AO2 RAB27 CIG 007V014 P0015
KOXC 221639Z 04005KT 2SM +RA BR BKN008 OVC013 21/21 A2997 RMK AO2 VIS 1 1/2V3 RAB27 CIG 007V011 P0013
KOXC 221628Z 00000KT 1 3/4SM +RA BR OVC010 22/20 A2997 RMK AO2 RAB27 P0002
KOXC 221551Z 07007KT 10SM OVC010 22/20 A2998 RMK AO2 SLP160 T02170200
KOXC 221451Z 06005KT 10SM OVC010 22/20 A3000 RMK AO2 SLP165 T02220200 58006
KOXC 221406Z 06004KT 10SM OVC010 22/20 A3000 RMK AO2 CIG 008V016
KOXC 221351Z 07005KT 10SM OVC008 22/20 A3000 RMK AO2 SLP169 T02170200
KOXC 221251Z 08003KT 10SM OVC006 21/19 A3001 RMK AO2 SLP171 T02060194
KOXC 221151Z 08007KT 7SM OVC004 20/19 A3001 RMK AO2 SLP172 T02000194 10206 20200 56002
KOXC 221051Z VRB04KT 8SM OVC004 20/19 A3002 RMK AO2 SLP172 T02000194
KOXC 220951Z AUTO 08005KT 7SM BKN004 OVC012 20/20 A3001 RMK AO2 SLP170 T02000200
KOXC 220938Z AUTO 07006KT 7SM BKN004 OVC012 20/20 A3001 RMK AO2
KOXC 220930Z AUTO 07004KT 8SM SCT004 BKN010 20/20 A3001 RMK AO2
KOXC 220851Z AUTO 06004KT 8SM OVC006 20/20 A3002 RMK AO2 CIG 005V011 SLP172 T02000200 58013
KOXC 220823Z AUTO 08003KT 8SM BKN006 OVC010 20/20 A3003 RMK AO2 CIG 004V008
KOXC 220751Z AUTO 10003KT 9SM SCT006 BKN011 21/20 A3004 RMK AO2 SLP179 T02060200
KOXC 220651Z AUTO 00000KT 10SM BKN006 OVC012 21/20 A3005 RMK AO2 SLP182 T02060200
KOXC 220628Z AUTO 11003KT 10SM SCT006 BKN010 21/20 A3006 RMK AO2
KOXC 220617Z AUTO 11003KT 10SM BKN006 21/20 A3006 RMK AO2
KOXC 220607Z AUTO 09004KT 10SM SCT006 21/20 A3006 RMK AO2
KOXC 220551Z AUTO 10005KT 10SM BKN006 BKN015 21/20 A3006 RMK AO2 CIG 004V009 SLP185 T02060200 10222 20206 58009
KOXC 220505Z AUTO 12004KT 10SM BKN006 BKN010 21/20 A3007 RMK AO2 CIG 004V008
KOXC 220451Z AUTO 11004KT 10SM BKN004 21/20 A3007 RMK AO2 CIG 004V010 SLP190 T02060200 402720178
KOXC 220418Z AUTO 12004KT 10SM BKN004 BKN021 21/20 A3008 RMK AO2
KOXC 220348Z AUTO 15004KT 10SM SCT006 BKN021 21/20 A3008 RMK AO2 SLP191 T02060200
KOXC 220347Z AUTO 15004KT 10SM SCT006 SCT012 BKN021 21/20 A3008 RMK AO2
KOXC 220251Z AUTO 13007KT 10SM OVC006 21/20 A3009 RMK AO2 SLP196 T02110200 58001
KOXC 220211Z AUTO 13004KT 10SM BKN006 21/19 A3009 RMK AO2
KOXC 220151Z AUTO 12003KT 10SM SCT008 21/19 A3009 RMK AO2 SLP197 T02060194
KOXC 220147Z AUTO 12004KT 10SM SCT008 21/19 A3009 RMK AO2
KOXC 220051Z AUTO 14004KT 10SM CLR 21/18 A3009 RMK AO2 SLP198 T02110183
KOXC 212351Z 15007KT 10SM CLR 22/19 A3009 RMK AO2 SLP198 T02220189 10272 20222 55010
KOXC 212251Z 17008KT 10SM CLR 24/18 A3008 RMK AO2 SLP195 T02390183
KOXC 212151Z 16007KT 10SM CLR 26/16 A3010 RMK AO2 SLP201 T02560161
KOXC 212051Z 15008KT 10SM FEW037 27/17 A3012 RMK AO2 SLP205 T02720172 56013
KOXC 211951Z 13009KT 10SM BKN033 27/18 A3013 RMK AO2 SLP211 T02670183
KOXC 211851Z 15008KT 10SM BKN032 BKN039 27/19 A3014 RMK AO2 SLP212 T02670189
KOXC 211751Z 19009KT 10SM SCT033 27/18 A3016 RMK AO2 SLP219 T02720183 10272 20200 58007
KOXC 211651Z 15010KT 110V190 10SM FEW040 27/18 A3017 RMK AO2 SLP225 T02670178
KOXC 211551Z COR 17008KT 10SM FEW040 27/17 A3018 RMK AO2 SLP225 T02670167
KOXC 211451Z 15009KT 10SM SCT025 SCT030 26/18 A3018 RMK AO2 SLP226 T02560178 58005
KOXC 211358Z VRB03KT 10SM BKN016 BKN021 23/19 A3019 RMK AO2
KOXC 211351Z VRB04KT 9SM BKN014 BKN021 24/19 A3019 RMK AO2 SLP230 T02390194
KOXC 211310Z 20006KT 10SM FEW007 BKN014 22/20 A3020 RMK AO2
KOXC 211251Z 18004KT 8SM BKN007 OVC014 21/20 A3020 RMK AO2 SLP235 T02110200
KOXC 211221Z 22004KT 3SM BR OVC005 21/20 A3020 RMK AO2 CIG 003V008
KOXC 211153Z 18005KT 4SM BR OVC003 20/20 A3019 RMK AO2 CIG 001V006
KOXC 211151Z 18003KT 2SM BR OVC001 20/20 A3019 RMK AO2 CIG 001V005 SLP232 T02000200 10200 20178 51006
KOXC 211147Z 18005KT 3SM BR OVC001 20/20 A3019 RMK AO2 CIG 001V005
KOXC 211134Z 17006KT 1SM BR OVC001 20/20 A3019 RMK AO2
KOXC 211051Z 17004KT 1/4SM FG OVC001 19/19 A3019 RMK AO2 SLP230 T01940194
KOXC 211038Z 17004KT 1/2SM FG BKN001 19/19 A3019 RMK AO2
KOXC 211001Z 18003KT 3/4SM BR SCT002 19/19 A3019 RMK AO2
KOXC 210956Z AUTO 18003KT 1SM BR VV001 19/19 A3019 RMK AO2
KOXC 210951Z AUTO 17004KT 2SM BR SCT001 19/19 A3019 RMK AO2 SLP228 T01890189
KOXC 210940Z AUTO 18003KT 1SM BR OVC001 19/19 A3019 RMK AO2 VIS 1/2V2
KOXC 210851Z AUTO 18005KT 1/4SM FG OVC001 20/20 A3017 RMK AO2 SLP224 T02000200 53002
KOXC 210804Z AUTO 15003KT 1/4SM FG BKN001 19/19 A3017 RMK AO2
KOXC 210757Z AUTO 14004KT 3/4SM BR VV002 19/19 A3017 RMK AO2 VIS 1/4V2
KOXC 210751Z AUTO 15003KT 1 1/2SM BR FEW003 19/19 A3017 RMK AO2 VIS 1/2V3 SLP223 T01890189
KOXC 210651Z AUTO 00000KT 6SM BR CLR 18/18 A3017 RMK AO2 SLP222 T01830178
KOXC 210551Z AUTO 00000KT 10SM CLR 19/18 A3017 RMK AO2 SLP222 T01890178 10250 20183 58005
KOXC 210451Z AUTO 18003KT 10SM CLR 19/18 A3018 RMK AO2 SLP224 T01940178 403060178
KOXC 210351Z AUTO 00000KT 10SM CLR 19/18 A3018 RMK AO2 SLP227 T01890178
KOXC 210251Z AUTO 00000KT 10SM CLR 21/18 A3018 RMK AO2 SLP225 T02110183 50003
KOXC 210151Z AUTO 18004KT 10SM CLR 22/18 A3019 RMK AO2 SLP228 T02170183
KOXC 210051Z AUTO 15005KT 10SM CLR 23/18 A3018 RMK AO2 SLP227 T02330183
KOXC 202351Z 19004KT 10SM CLR 25/18 A3017 RMK AO2 SLP224 T02500178 10306 20250 53003
KOXC 202251Z 18009G15KT 10SM CLR 28/18 A3016 RMK AO2 SLP219 T02780183
KOXC 202151Z 18006KT 10SM CLR 28/18 A3016 RMK AO2 SLP220 T02830183
KOXC 202051Z 18006KT 10SM BKN110 28/18 A3016 RMK AO2 SLP221 T02780183 55005
KOXC 201951Z 21007KT 10SM FEW050 SCT110 29/17 A3016 RMK AO2 SLP220 T02940172
KOXC 201851Z 18004KT 10SM SCT070 29/16 A3017 RMK AO2 SLP223 T02940161
KOXC 201751Z 19005KT 10SM FEW040 SCT070 BKN110 29/17 A3018 RMK AO2 SLP225 T02940167 10306 20194 57009
KOXC 201651Z VRB05KT 10SM SCT080 BKN110 29/17 A3019 RMK AO2 SLP227 T02940172
KOXC 201551Z COR VRB05KT 10SM FEW070 30/17 A3020 RMK AO2 SLP232 T03000167
KOXC 201451Z 13003KT 10SM CLR 28/18 A3021 RMK AO2 SLP234 T02830178 51008
KOXC 201351Z 00000KT 10SM CLR 26/18 A3021 RMK AO2 SLP234 T02560178
KOXC 201251Z 00000KT 8SM CLR 22/18 A3020 RMK AO2 SLP233 T02220183
KOXC 201151Z 00000KT 10SM CLR 20/18 A3018 RMK AO2 SLP227 T02000183 10206 20178 53006
KOXC 201051Z 00000KT 10SM CLR 18/17 A3018 RMK AO2 SLP225 T01830172
KOXC 200951Z AUTO 01003KT 10SM CLR 18/17 A3016 RMK AO2 SLP221 T01780167
KOXC 200851Z AUTO 00000KT 10SM CLR 18/17 A3016 RMK AO2 SLP221 T01830172 50004
KOXC 200751Z AUTO 00000KT 10SM CLR 19/18 A3017 RMK AO2 SLP223 T01940178
KOXC 200651Z AUTO 00000KT 10SM CLR 19/17 A3016 RMK AO2 SLP218 T01940172
KOXC 200551Z AUTO 23003KT 10SM CLR 20/17 A3015 RMK AO2 SLP215 T02000172 10256 20200 51005
KOXC 200451Z AUTO 22003KT 10SM CLR 22/17 A3015 RMK AO2 SLP215 T02170167 403110139
KOXC 200351Z AUTO 16003KT 10SM CLR 21/16 A3015 RMK AO2 SLP214 T02110156
KOXC 200251Z AUTO 20003KT 10SM CLR 22/15 A3014 RMK AO2 SLP211 T02220150 51014
KOXC 200151Z AUTO 21003KT 10SM CLR 22/15 A3013 RMK AO2 SLP209 T02220150
KOXC 200051Z 19005KT 10SM CLR 23/15 A3011 RMK AO2 SLP205 T02330150
KOXC 192351Z 20006KT 10SM CLR 26/16 A3010 RMK AO2 SLP199 T02560156 10311 20256 53008
KOXC 192251Z COR 18007KT 10SM FEW090 27/15 A3008 RMK AO2 SLP194 T02720150
KOXC 192151Z 19007KT 10SM FEW085 29/15 A3008 RMK AO2 SLP192 T02890150
KOXC 192051Z 20007KT 10SM SCT090 29/14 A3007 RMK AO2 SLP191 T02940144 58001
KOXC 191951Z 23006KT 10SM SCT080 29/12 A3007 RMK AO2 SLP191 T02940122
KOXC 191851Z 28008KT 10SM SCT080 30/11 A3007 RMK AO2 SLP191 T03000111